{
  "type": "FeatureCollection",
  "features": [
    {
      "type": "Feature",
      "properties": {
        "norad_id": 37404,
        "name": "FENGYUN 1C DEB",
        "group": "fengyun-1c-debris",
        "lat": 68.96189172425528,
        "lon": -41.2269042969895,
        "alt_km": 793.4543488283534,
        "timestamp": "2025-12-04T10:51:50.394447+00:00",
        "meta_object_name": "FENGYUN 1C DEB",
        "meta_object_id": "1999-025EFW",
        "meta_epoch": "2025-12-03T11:46:07.339008",
        "meta_mean_motion": 14.31589733,
        "meta_eccentricity": 0.00440614,
        "meta_inclination": 98.4524,
        "meta_ra_of_asc_node": 340.5795,
        "meta_arg_of_pericenter": 189.623,
        "meta_mean_anomaly": 324.9221,
        "meta_ephemeris_type": 0,
        "meta_classification_type": "U",
        "meta_norad_cat_id": 37404,
        "meta_element_set_no": 999,
        "meta_rev_at_epoch": 82608,
        "meta_bstar": 0.00096855201,
        "meta_mean_motion_dot": 2.564e-05,
        "meta_mean_motion_ddot": 0,
        "tle_line1": "1 37404U 99025EFW 25337.49036272  .00002564  00000+0  96855-3 0  9998",
        "tle_line2": "2 37404  98.4524 340.5795 0044061 189.6230 324.9221 14.31589733826080"
      },
      "geometry": {
        "type": "Point",
        "coordinates": [
          -41.2269042969895,
          68.96189172425528
        ]
      }
    },
    {
      "type": "Feature",
      "properties": {
        "norad_id": 37406,
        "name": "FENGYUN 1C DEB",
        "group": "fengyun-1c-debris",
        "lat": 81.04204701558595,
        "lon": 140.70816458518627,
        "alt_km": 972.0408454906001,
        "timestamp": "2025-12-04T10:51:50.394458+00:00",
        "meta_object_name": "FENGYUN 1C DEB",
        "meta_object_id": "1999-025EFY",
        "meta_epoch": "2025-12-03T22:32:55.995936",
        "meta_mean_motion": 14.04235452,
        "meta_eccentricity": 0.0150431,
        "meta_inclination": 98.4445,
        "meta_ra_of_asc_node": 210.691,
        "meta_arg_of_pericenter": 291.3645,
        "meta_mean_anomaly": 82.4286,
        "meta_ephemeris_type": 0,
        "meta_classification_type": "U",
        "meta_norad_cat_id": 37406,
        "meta_element_set_no": 999,
        "meta_rev_at_epoch": 63109,
        "meta_bstar": 0.0024329,
        "meta_mean_motion_dot": 4.233e-05,
        "meta_mean_motion_ddot": 0,
        "tle_line1": "1 37406U 99025EFY 25337.93953699  .00004233  00000+0  24329-2 0  9991",
        "tle_line2": "2 37406  98.4445 210.6910 0150431 291.3645  82.4286 14.04235452631098"
      },
      "geometry": {
        "type": "Point",
        "coordinates": [
          140.70816458518627,
          81.04204701558595
        ]
      }
    },
    {
      "type": "Feature",
      "properties": {
        "norad_id": 37415,
        "name": "FENGYUN 1C DEB",
        "group": "fengyun-1c-debris",
        "lat": -13.674458618129059,
        "lon": -95.14460431248726,
        "alt_km": 859.8343857841073,
        "timestamp": "2025-12-04T10:51:50.394468+00:00",
        "meta_object_name": "FENGYUN 1C DEB",
        "meta_object_id": "1999-025EGH",
        "meta_epoch": "2025-12-02T01:04:00.466176",
        "meta_mean_motion": 13.52075679,
        "meta_eccentricity": 0.02848718,
        "meta_inclination": 98.9818,
        "meta_ra_of_asc_node": 84.8777,
        "meta_arg_of_pericenter": 209.5506,
        "meta_mean_anomaly": 148.9269,
        "meta_ephemeris_type": 0,
        "meta_classification_type": "U",
        "meta_norad_cat_id": 37415,
        "meta_element_set_no": 999,
        "meta_rev_at_epoch": 62177,
        "meta_bstar": 0.00059758334,
        "meta_mean_motion_dot": 4.68e-06,
        "meta_mean_motion_ddot": 0,
        "tle_line1": "1 37415U 99025EGH 25336.04444984  .00000468  00000+0  59758-3 0  9995",
        "tle_line2": "2 37415  98.9818  84.8777 0284871 209.5506 148.9269 13.52075679621770"
      },
      "geometry": {
        "type": "Point",
        "coordinates": [
          -95.14460431248726,
          -13.674458618129059
        ]
      }
    },
    {
      "type": "Feature",
      "properties": {
        "norad_id": 37417,
        "name": "FENGYUN 1C DEB",
        "group": "fengyun-1c-debris",
        "lat": 50.73981467130047,
        "lon": 162.38526942397314,
        "alt_km": 915.5255205334188,
        "timestamp": "2025-12-04T10:51:50.394478+00:00",
        "meta_object_name": "FENGYUN 1C DEB",
        "meta_object_id": "1999-025EGK",
        "meta_epoch": "2025-11-30T05:34:53.450976",
        "meta_mean_motion": 14.07367073,
        "meta_eccentricity": 0.00783952,
        "meta_inclination": 98.7959,
        "meta_ra_of_asc_node": 327.3578,
        "meta_arg_of_pericenter": 296.2961,
        "meta_mean_anomaly": 63.017,
        "meta_ephemeris_type": 0,
        "meta_classification_type": "U",
        "meta_norad_cat_id": 37417,
        "meta_element_set_no": 999,
        "meta_rev_at_epoch": 68174,
        "meta_bstar": 0.00031485528,
        "meta_mean_motion_dot": 5e-06,
        "meta_mean_motion_ddot": 0,
        "tle_line1": "1 37417U 99025EGK 25334.23256309  .00000500  00000+0  31486-3 0  9993",
        "tle_line2": "2 37417  98.7959 327.3578 0078395 296.2961  63.0170 14.07367073681744"
      },
      "geometry": {
        "type": "Point",
        "coordinates": [
          162.38526942397314,
          50.73981467130047
        ]
      }
    },
    {
      "type": "Feature",
      "properties": {
        "norad_id": 37418,
        "name": "FENGYUN 1C DEB",
        "group": "fengyun-1c-debris",
        "lat": 23.65855652699086,
        "lon": 57.18758970687068,
        "alt_km": 2573.036254746562,
        "timestamp": "2025-12-04T10:51:50.394488+00:00",
        "meta_object_name": "FENGYUN 1C DEB",
        "meta_object_id": "1999-025EGL",
        "meta_epoch": "2025-12-03T23:55:25.768128",
        "meta_mean_motion": 11.95103309,
        "meta_eccentricity": 0.1077719,
        "meta_inclination": 98.6131,
        "meta_ra_of_asc_node": 233.0769,
        "meta_arg_of_pericenter": 337.0843,
        "meta_mean_anomaly": 18.5361,
        "meta_ephemeris_type": 0,
        "meta_classification_type": "U",
        "meta_norad_cat_id": 37418,
        "meta_element_set_no": 999,
        "meta_rev_at_epoch": 49380,
        "meta_bstar": 0.0055528,
        "meta_mean_motion_dot": 2.288e-05,
        "meta_mean_motion_ddot": 0,
        "tle_line1": "1 37418U 99025EGL 25337.99682602  .00002288  00000+0  55528-2 0  9996",
        "tle_line2": "2 37418  98.6131 233.0769 1077719 337.0843  18.5361 11.95103309493803"
      },
      "geometry": {
        "type": "Point",
        "coordinates": [
          57.18758970687068,
          23.65855652699086
        ]
      }
    },
    {
      "type": "Feature",
      "properties": {
        "norad_id": 37420,
        "name": "FENGYUN 1C DEB",
        "group": "fengyun-1c-debris",
        "lat": -52.623766792570414,
        "lon": 136.92245435101168,
        "alt_km": 880.1808996285863,
        "timestamp": "2025-12-04T10:51:50.394498+00:00",
        "meta_object_name": "FENGYUN 1C DEB",
        "meta_object_id": "1999-025EGN",
        "meta_epoch": "2025-12-03T04:34:50.110464",
        "meta_mean_motion": 13.99724677,
        "meta_eccentricity": 0.00710355,
        "meta_inclination": 98.8595,
        "meta_ra_of_asc_node": 327.4823,
        "meta_arg_of_pericenter": 302.7718,
        "meta_mean_anomaly": 56.6616,
        "meta_ephemeris_type": 0,
        "meta_classification_type": "U",
        "meta_norad_cat_id": 37420,
        "meta_element_set_no": 999,
        "meta_rev_at_epoch": 59631,
        "meta_bstar": 0.00072950763,
        "meta_mean_motion_dot": 1.048e-05,
        "meta_mean_motion_ddot": 0,
        "tle_line1": "1 37420U 99025EGN 25337.19085776  .00001048  00000+0  72951-3 0  9993",
        "tle_line2": "2 37420  98.8595 327.4823 0071035 302.7718  56.6616 13.99724677596314"
      },
      "geometry": {
        "type": "Point",
        "coordinates": [
          136.92245435101168,
          -52.623766792570414
        ]
      }
    },
    {
      "type": "Feature",
      "properties": {
        "norad_id": 37421,
        "name": "FENGYUN 1C DEB",
        "group": "fengyun-1c-debris",
        "lat": -2.084762578100496,
        "lon": 113.8555957010569,
        "alt_km": 1023.2909307488289,
        "timestamp": "2025-12-04T10:51:50.394509+00:00",
        "meta_object_name": "FENGYUN 1C DEB",
        "meta_object_id": "1999-025EGP",
        "meta_epoch": "2025-11-30T14:38:47.817024",
        "meta_mean_motion": 13.40509147,
        "meta_eccentricity": 0.0408836,
        "meta_inclination": 98.8864,
        "meta_ra_of_asc_node": 290.7982,
        "meta_arg_of_pericenter": 115.931,
        "meta_mean_anomaly": 248.4546,
        "meta_ephemeris_type": 0,
        "meta_classification_type": "U",
        "meta_norad_cat_id": 37421,
        "meta_element_set_no": 999,
        "meta_rev_at_epoch": 60783,
        "meta_bstar": 0.00054336,
        "meta_mean_motion_dot": 4.53e-06,
        "meta_mean_motion_ddot": 0,
        "tle_line1": "1 37421U 99025EGP 25334.61027566  .00000453  00000+0  54336-3 0  9997",
        "tle_line2": "2 37421  98.8864 290.7982 0408836 115.9310 248.4546 13.40509147607839"
      },
      "geometry": {
        "type": "Point",
        "coordinates": [
          113.8555957010569,
          -2.084762578100496
        ]
      }
    }
  ]
}